start=new Date('2022-01-12T00:00:00.000Z').valueOf();
sats=[{"APOAPSIS":"548.400","MEAN_MOTION":"15.06393952","RA_OF_ASC_NODE":"316.7785","TIME_SYSTEM":"UTC","OBJECT_NAME":"STARLINK-2607","PERIAPSIS":"546.064","SEMIMAJOR_AXIS":"6925.367","REF_FRAME":"TEME","ECCENTRICITY":"0.00016870","COUNTRY_CODE":"US","MEAN_MOTION_DOT":"-0.00001166","GP_ID":"193663514","INCLINATION":"53.0563","MEAN_ELEMENT_THEORY":"SGP4","ARG_OF_PERICENTER":"59.0296","ELEMENT_SET_NO":"999","CLASSIFICATION_TYPE":"U","MEAN_ANOMALY":"301.0859","CENTER_NAME":"EARTH","SITE":"AFETR","BSTAR":"-0.00005942600000","TLE_LINE2":"2 48391  53.0563 316.7785 0001687  59.0296 301.0859 15.06393952 39707","EPOCH":"2022-01-11T13:22:32.527488","LAUNCH_DATE":"2021-05-04","PERIOD":"95.593","EPHEMERIS_TYPE":"0","REV_AT_EPOCH":"3970","NORAD_CAT_ID":"48391","MEAN_MOTION_DDOT":"0.0000000000000","DECAY_DATE":null,"TLE_LINE1":"1 48391U 21038AQ  22011.55732092 -.00001166  00000-0 -59426-4 0  9994","RCS_SIZE":"LARGE","OBJECT_ID":"2021-038AQ","OBJECT_TYPE":"PAYLOAD","FILE":"3269657"},{"OBJECT_TYPE":"PAYLOAD","OBJECT_ID":"2021-038AR","FILE":"3269657","RCS_SIZE":"LARGE","TLE_LINE1":"1 48392U 21038AR  22011.55363552 -.00000938  00000-0 -44088-4 0  9990","MEAN_MOTION_DDOT":"0.0000000000000","DECAY_DATE":null,"PERIOD":"95.593","NORAD_CAT_ID":"48392","REV_AT_EPOCH":"3970","EPHEMERIS_TYPE":"0","EPOCH":"2022-01-11T13:17:14.108928","LAUNCH_DATE":"2021-05-04","TLE_LINE2":"2 48392  53.0569 316.7935 0001992  63.4981 296.6212 15.06392271 39705","BSTAR":"-0.00004408800000","MEAN_ANOMALY":"296.6212","CLASSIFICATION_TYPE":"U","ELEMENT_SET_NO":"999","CENTER_NAME":"EARTH","SITE":"AFETR","INCLINATION":"53.0569","ARG_OF_PERICENTER":"63.4981","MEAN_ELEMENT_THEORY":"SGP4","GP_ID":"193663764","MEAN_MOTION_DOT":"-0.00000938","COUNTRY_CODE":"US","REF_FRAME":"TEME","ECCENTRICITY":"0.00019920","SEMIMAJOR_AXIS":"6925.372","TIME_SYSTEM":"UTC","PERIAPSIS":"545.858","OBJECT_NAME":"STARLINK-2605","MEAN_MOTION":"15.06392271","APOAPSIS":"548.617","RA_OF_ASC_NODE":"316.7935"},{"PERIOD":"95.593","EPHEMERIS_TYPE":"0","NORAD_CAT_ID":"48393","REV_AT_EPOCH":"3907","DECAY_DATE":null,"MEAN_MOTION_DDOT":"0.0000000000000","RCS_SIZE":"LARGE","TLE_LINE1":"1 48393U 21038AS  22011.54995849 -.00001684  00000-0 -94242-4 0  9996","OBJECT_ID":"2021-038AS","OBJECT_TYPE":"PAYLOAD","FILE":"3269877","ELEMENT_SET_NO":"999","CLASSIFICATION_TYPE":"U","MEAN_ANOMALY":"293.1604","CENTER_NAME":"EARTH","SITE":"AFETR","BSTAR":"-0.00009424200000","TLE_LINE2":"2 48393  53.0583 316.8201 0001988  66.9595 293.1604 15.06381211 39072","EPOCH":"2022-01-11T13:11:56.413536","LAUNCH_DATE":"2021-05-04","REF_FRAME":"TEME","ECCENTRICITY":"0.00019880","MEAN_MOTION_DOT":"-0.00001684","COUNTRY_CODE":"US","GP_ID":"193668638","INCLINATION":"53.0583","MEAN_ELEMENT_THEORY":"SGP4","ARG_OF_PERICENTER":"66.9595","APOAPSIS":"548.648","RA_OF_ASC_NODE":"316.8201","MEAN_MOTION":"15.06381211","TIME_SYSTEM":"UTC","OBJECT_NAME":"STARLINK-2602","PERIAPSIS":"545.894","SEMIMAJOR_AXIS":"6925.406"},{"GP_ID":"193692067","ARG_OF_PERICENTER":"55.7149","MEAN_ELEMENT_THEORY":"SGP4","INCLINATION":"53.0563","ECCENTRICITY":"0.00022310","REF_FRAME":"TEME","COUNTRY_CODE":"US","MEAN_MOTION_DOT":"0.00000028","PERIAPSIS":"545.668","OBJECT_NAME":"STARLINK-2573","TIME_SYSTEM":"UTC","SEMIMAJOR_AXIS":"6925.348","RA_OF_ASC_NODE":"315.3328","APOAPSIS":"548.759","MEAN_MOTION":"15.06400027","FILE":"3269987","OBJECT_TYPE":"PAYLOAD","OBJECT_ID":"2021-038AT","NORAD_CAT_ID":"48394","REV_AT_EPOCH":"3975","EPHEMERIS_TYPE":"0","PERIOD":"95.592","TLE_LINE1":"1 48394U 21038AT  22011.87798886  .00000028  00000-0  20821-4 0  9996","RCS_SIZE":"LARGE","MEAN_MOTION_DDOT":"0.0000000000000","DECAY_DATE":null,"TLE_LINE2":"2 48394  53.0563 315.3328 0002231  55.7149 304.4051 15.06400027 39752","BSTAR":"0.00002082100000","LAUNCH_DATE":"2021-05-04","EPOCH":"2022-01-11T21:04:18.237504","CENTER_NAME":"EARTH","SITE":"AFETR","MEAN_ANOMALY":"304.4051","CLASSIFICATION_TYPE":"U","ELEMENT_SET_NO":"999"},{"TIME_SYSTEM":"UTC","PERIAPSIS":"545.816","OBJECT_NAME":"STARLINK-2574","SEMIMAJOR_AXIS":"6925.398","APOAPSIS":"548.710","RA_OF_ASC_NODE":"316.8928","MEAN_MOTION":"15.06383850","GP_ID":"193663015","INCLINATION":"53.0562","MEAN_ELEMENT_THEORY":"SGP4","ARG_OF_PERICENTER":"55.4581","REF_FRAME":"TEME","ECCENTRICITY":"0.00020890","MEAN_MOTION_DOT":"-0.00001924","COUNTRY_CODE":"US","BSTAR":"-0.00011034000000","TLE_LINE2":"2 48395  53.0562 316.8928 0002089  55.4581 304.6604 15.06383850 39707","EPOCH":"2022-01-11T12:44:02.076576","LAUNCH_DATE":"2021-05-04","ELEMENT_SET_NO":"999","CLASSIFICATION_TYPE":"U","MEAN_ANOMALY":"304.6604","CENTER_NAME":"EARTH","SITE":"AFETR","OBJECT_ID":"2021-038AU","OBJECT_TYPE":"PAYLOAD","FILE":"3269657","PERIOD":"95.593","EPHEMERIS_TYPE":"0","NORAD_CAT_ID":"48395","REV_AT_EPOCH":"3970","MEAN_MOTION_DDOT":"0.0000000000000","DECAY_DATE":null,"RCS_SIZE":"LARGE","TLE_LINE1":"1 48395U 21038AU  22011.53057959 -.00001924  00000-0 -11034-3 0  9992"},{"RA_OF_ASC_NODE":"316.8393","APOAPSIS":"548.438","MEAN_MOTION":"15.06400040","SEMIMAJOR_AXIS":"6925.348","TIME_SYSTEM":"UTC","OBJECT_NAME":"STARLINK-2575","PERIAPSIS":"545.989","MEAN_MOTION_DOT":"-0.00001196","COUNTRY_CODE":"US","REF_FRAME":"TEME","ECCENTRICITY":"0.00017680","INCLINATION":"53.0581","ARG_OF_PERICENTER":"61.4830","MEAN_ELEMENT_THEORY":"SGP4","GP_ID":"193663265","MEAN_ANOMALY":"298.6337","CLASSIFICATION_TYPE":"U","ELEMENT_SET_NO":"999","SITE":"AFETR","CENTER_NAME":"EARTH","EPOCH":"2022-01-11T13:01:18.173280","LAUNCH_DATE":"2021-05-04","TLE_LINE2":"2 48396  53.0581 316.8393 0001768  61.4830 298.6337 15.06400040 39708","BSTAR":"-0.00006138000000","TLE_LINE1":"1 48396U 21038AV  22011.54257145 -.00001196  00000-0 -61380-4 0  9994","RCS_SIZE":"LARGE","DECAY_DATE":null,"MEAN_MOTION_DDOT":"0.0000000000000","PERIOD":"95.592","NORAD_CAT_ID":"48396","REV_AT_EPOCH":"3970","EPHEMERIS_TYPE":"0","OBJECT_TYPE":"PAYLOAD","OBJECT_ID":"2021-038AV","FILE":"3269657"},{"MEAN_MOTION":"15.06402920","APOAPSIS":"548.507","RA_OF_ASC_NODE":"316.8683","SEMIMAJOR_AXIS":"6925.340","TIME_SYSTEM":"UTC","OBJECT_NAME":"STARLINK-2590","PERIAPSIS":"545.902","COUNTRY_CODE":"US","MEAN_MOTION_DOT":"-0.00001082","REF_FRAME":"TEME","ECCENTRICITY":"0.00018810","INCLINATION":"53.0552","MEAN_ELEMENT_THEORY":"SGP4","ARG_OF_PERICENTER":"62.3878","GP_ID":"193662513","ELEMENT_SET_NO":"999","CLASSIFICATION_TYPE":"U","MEAN_ANOMALY":"297.7302","SITE":"AFETR","CENTER_NAME":"EARTH","EPOCH":"2022-01-11T12:55:59.448864","LAUNCH_DATE":"2021-05-04","BSTAR":"-0.00005372300000","TLE_LINE2":"2 48397  53.0552 316.8683 0001881  62.3878 297.7302 15.06402920 39708","DECAY_DATE":null,"MEAN_MOTION_DDOT":"0.0000000000000","TLE_LINE1":"1 48397U 21038AW  22011.53888251 -.00001082  00000-0 -53723-4 0  9998","RCS_SIZE":"LARGE","PERIOD":"95.592","EPHEMERIS_TYPE":"0","NORAD_CAT_ID":"48397","REV_AT_EPOCH":"3970","OBJECT_ID":"2021-038AW","OBJECT_TYPE":"PAYLOAD","FILE":"3269657"},{"RCS_SIZE":"LARGE","TLE_LINE1":"1 48398U 21038AX  22011.53521049 -.00001148  00000-0 -58184-4 0  9997","MEAN_MOTION_DDOT":"0.0000000000000","DECAY_DATE":null,"REV_AT_EPOCH":"3970","NORAD_CAT_ID":"48398","EPHEMERIS_TYPE":"0","PERIOD":"95.593","FILE":"3269657","OBJECT_TYPE":"PAYLOAD","OBJECT_ID":"2021-038AX","SITE":"AFETR","CENTER_NAME":"EARTH","MEAN_ANOMALY":"297.7976","CLASSIFICATION_TYPE":"U","ELEMENT_SET_NO":"999","LAUNCH_DATE":"2021-05-04","EPOCH":"2022-01-11T12:50:42.186336","TLE_LINE2":"2 48398  53.0569 316.8780 0002004  62.3217 297.7976 15.06390608 39706","BSTAR":"-0.00005818400000","MEAN_MOTION_DOT":"-0.00001148","COUNTRY_CODE":"US","ECCENTRICITY":"0.00020040","REF_FRAME":"TEME","ARG_OF_PERICENTER":"62.3217","MEAN_ELEMENT_THEORY":"SGP4","INCLINATION":"53.0569","GP_ID":"193662264","APOAPSIS":"548.630","RA_OF_ASC_NODE":"316.8780","MEAN_MOTION":"15.06390608","SEMIMAJOR_AXIS":"6925.377","PERIAPSIS":"545.854","OBJECT_NAME":"STARLINK-2588","TIME_SYSTEM":"UTC"},{"BSTAR":"-0.00004344000000","TLE_LINE2":"2 48399  53.0560 316.9045 0002031  67.4830 292.6374 15.06399993 39690","LAUNCH_DATE":"2021-05-04","EPOCH":"2022-01-11T12:45:22.620384","CENTER_NAME":"EARTH","SITE":"AFETR","CLASSIFICATION_TYPE":"U","ELEMENT_SET_NO":"999","MEAN_ANOMALY":"292.6374","FILE":"3269657","OBJECT_ID":"2021-038AY","OBJECT_TYPE":"PAYLOAD","EPHEMERIS_TYPE":"0","REV_AT_EPOCH":"3969","NORAD_CAT_ID":"48399","PERIOD":"95.592","DECAY_DATE":null,"MEAN_MOTION_DDOT":"0.0000000000000","RCS_SIZE":"LARGE","TLE_LINE1":"1 48399U 21038AY  22011.53151181 -.00000929  00000-0 -43440-4 0  9999","PERIAPSIS":"545.807","OBJECT_NAME":"STARLINK-2587","TIME_SYSTEM":"UTC","SEMIMAJOR_AXIS":"6925.349","APOAPSIS":"548.620","MEAN_MOTION":"15.06399993","RA_OF_ASC_NODE":"316.9045","GP_ID":"193663515","MEAN_ELEMENT_THEORY":"SGP4","ARG_OF_PERICENTER":"67.4830","INCLINATION":"53.0560","ECCENTRICITY":"0.00020310","REF_FRAME":"TEME","MEAN_MOTION_DOT":"-0.00000929","COUNTRY_CODE":"US"},{"SEMIMAJOR_AXIS":"6925.359","OBJECT_NAME":"STARLINK-2576","PERIAPSIS":"545.957","TIME_SYSTEM":"UTC","RA_OF_ASC_NODE":"318.1080","APOAPSIS":"548.492","MEAN_MOTION":"15.06396434","ARG_OF_PERICENTER":"65.0760","MEAN_ELEMENT_THEORY":"SGP4","INCLINATION":"53.0569","GP_ID":"193663765","COUNTRY_CODE":"US","MEAN_MOTION_DOT":"-0.00001236","ECCENTRICITY":"0.00018300","REF_FRAME":"TEME","LAUNCH_DATE":"2021-05-04","EPOCH":"2022-01-11T06:17:55.266144","TLE_LINE2":"2 48400  53.0569 318.1080 0001830  65.0760 295.0419 15.06396434 38443","BSTAR":"-0.00006411600000","CENTER_NAME":"EARTH","SITE":"AFETR","MEAN_ANOMALY":"295.0419","CLASSIFICATION_TYPE":"U","ELEMENT_SET_NO":"999","FILE":"3269657","OBJECT_TYPE":"PAYLOAD","OBJECT_ID":"2021-038AZ","TLE_LINE1":"1 48400U 21038AZ  22011.26244521 -.00001236  00000-0 -64116-4 0  9998","RCS_SIZE":"LARGE","MEAN_MOTION_DDOT":"0.0000000000000","DECAY_DATE":null,"NORAD_CAT_ID":"48400","REV_AT_EPOCH":"3844","EPHEMERIS_TYPE":"0","PERIOD":"95.592"}];
